1 32789U 08021G   15272.22334632  .00003500  00000-0  27986-3 0  9995
2 32789  97.6562 330.9032 0011615  76.1529 356.0929 15.00816968402688
